NORAD_CAT_ID,OBJECT_NAME,OBJECT_TYPE,EPOCH,MEAN_MOTION,ECCENTRICITY,INCLINATION,RA_OF_ASC_NODE,ARG_OF_PERICENTER,MEAN_ANOMALY,BSTAR,MEAN_MOTION_DOT,MEAN_MOTION_DDOT,TLE_LINE0,TLE_LINE1,TLE_LINE2,SEMIMAJOR_AXIS,PERIOD,APOGEE,PERIGEE,DECAYED
51894.0,STARLINK-3595,PAYLOAD,2023-11-19 21:20:07,15.08838163,0.0001389,53.2167,173.6236,87.3614,272.7537,0.00010792,1.43e-05,0.0,0 STARLINK-3595,1 51894U 22022AU  23323.88897913  .00001430  00000-0  10792-3 0  9991,2 51894  53.2167 173.6236 0001389  87.3614 272.7537 15.08838163 96372,6917.886,95.438,540.712,538.79,0.0
51894.0,STARLINK-3595,PAYLOAD,2023-11-20 06:52:27,15.08825146,0.000135,53.2156,171.8383,80.8241,279.2903,0.00030727,4.604e-05,0.0,0 STARLINK-3595,1 51894U 22022AU  23324.28642598  .00004604  00000-0  30727-3 0  9999,2 51894  53.2156 171.8383 0001350  80.8241 279.2903 15.08825146 96438,6917.926,95.438,540.725,538.857,0.0
51894.0,STARLINK-3595,PAYLOAD,2023-11-20 13:13:59,15.08839745,0.0001396,53.2156,170.6493,87.8139,272.3013,2.4843e-05,1.07e-06,0.0,0 STARLINK-3595,1 51894U 22022AU  23324.55138104  .00000107  00000-0  24843-4 0  9999,2 51894  53.2156 170.6493 0001396  87.8139 272.3013 15.08839745 96470,6917.881,95.438,540.712,538.78,0.0
51894.0,STARLINK-3595,PAYLOAD,2023-11-20 19:35:31,15.08838403,0.0001404,53.2157,169.4597,87.229,272.8863,3.8603e-06,-2.27e-06,0.0,0 STARLINK-3595,1 51894U 22022AU  23324.81634224 -.00000227  00000-0  38603-5 0  9996,2 51894  53.2157 169.4597 0001404  87.2290 272.8863 15.08838403 96517,6917.885,95.438,540.722,538.779,0.0
51894.0,STARLINK-3595,PAYLOAD,2023-11-20 21:10:55,15.08838728,0.0001399,53.2157,169.1624,86.7181,273.3971,3.4409e-06,-2.33e-06,0.0,0 STARLINK-3595,1 51894U 22022AU  23324.88258163 -.00000233  00000-0  34409-5 0  9994,2 51894  53.2157 169.1624 0001399  86.7181 273.3971 15.08838728 96528,6917.884,95.438,540.717,538.781,0.0
51894.0,STARLINK-3595,PAYLOAD,2023-11-21 06:43:14,15.08836347,0.0001471,53.2159,167.3775,85.5589,274.5572,3.4686e-05,2.64e-06,0.0,0 STARLINK-3595,1 51894U 22022AU  23325.28002315  .00000264  00000-0  34686-4 0  9994,2 51894  53.2159 167.3775 0001471  85.5589 274.5572 15.08836347 96588,6917.892,95.438,540.774,538.739,0.0
51894.0,STARLINK-3595,PAYLOAD,2023-11-21 21:01:42,15.08841038,0.000146,53.2158,164.701,86.1495,273.9664,7.954e-05,9.78e-06,0.0,0 STARLINK-3595,1 51894U 22022AU  23325.87618073  .00000978  00000-0  79540-4 0  9993,2 51894  53.2158 164.7010 0001460  86.1495 273.9664 15.08841038 96679,6917.877,95.437,540.752,538.732,0.0
51894.0,STARLINK-3595,PAYLOAD,2023-11-22 12:55:33,15.08843813,0.0001456,53.2155,161.7275,86.073,274.0429,0.00012617,1.721e-05,0.0,0 STARLINK-3595,1 51894U 22022AU  23326.53857813  .00001721  00000-0  12617-3 0  9992,2 51894  53.2155 161.7275 0001456  86.0730 274.0429 15.08843813 96777,6917.869,95.437,540.741,538.726,0.0
51894.0,STARLINK-3595,PAYLOAD,2023-11-22 20:52:28,15.08848962,0.0001455,53.2148,160.2406,85.4605,274.6554,0.00022339,3.27e-05,0.0,0 STARLINK-3595,1 51894U 22022AU  23326.86977645  .00003270  00000-0  22339-3 0  9997,2 51894  53.2148 160.2406 0001455  85.4605 274.6554 15.08848962 96823,6917.853,95.437,540.725,538.711,0.0
51894.0,STARLINK-3595,PAYLOAD,2023-11-23 12:46:20,15.08835913,0.0001499,53.2154,157.2671,91.012,269.1044,5.01e-05,5.09e-06,0.0,0 STARLINK-3595,1 51894U 22022AU  23327.53218463  .00000509  00000-0  50100-4 0  9998,2 51894  53.2154 157.2671 0001499  91.0120 269.1044 15.08835913 96929,6917.893,95.438,540.795,538.721,0.0
51894.0,STARLINK-3595,PAYLOAD,2023-11-23 19:07:53,15.08829656,0.000165,53.2154,156.0798,79.3582,280.7596,-9.3926e-05,-1.782e-05,0.0,0 STARLINK-3595,1 51894U 22022AU  23327.79714951 -.00001782  00000-0 -93926-4 0  9998,2 51894  53.2154 156.0798 0001650  79.3582 280.7596 15.08829656 96968,6917.912,95.438,540.918,538.636,0.0
51894.0,STARLINK-3595,PAYLOAD,2023-11-24 18:58:40,15.08840499,0.0001558,53.2162,151.6182,93.7042,266.4129,3.1049e-05,2.06e-06,0.0,0 STARLINK-3595,1 51894U 22022AU  23328.79074612  .00000206  00000-0  31049-4 0  9998,2 51894  53.2162 151.6182 0001558  93.7042 266.4129 15.08840499 97112,6917.879,95.438,540.822,538.666,0.0
51894.0,STARLINK-3595,PAYLOAD,2023-11-24 22:09:26,15.088433,0.0001679,53.2168,151.0203,107.9775,252.1401,1.1379e-05,-1.07e-06,0.0,0 STARLINK-3595,1 51894U 22022AU  23328.92322435 -.00000107  00000-0  11379-4 0  9997,2 51894  53.2168 151.0203 0001679 107.9775 252.1401 15.08843300 97132,6917.87,95.437,540.897,538.574,0.0
51894.0,STARLINK-3595,PAYLOAD,2023-11-25 17:14:03,15.08845312,0.000142,53.2165,147.4528,89.5619,270.5536,0.00020881,3.037e-05,0.0,0 STARLINK-3595,1 51894U 22022AU  23329.71810038  .00003037  00000-0  20881-3 0  9997,2 51894  53.2165 147.4528 0001420  89.5619 270.5536 15.08845312 97255,6917.864,95.437,540.711,538.747,0.0
51894.0,STARLINK-3595,PAYLOAD,2023-11-26 12:18:41,15.08848162,0.0001386,53.2165,143.8856,83.2305,276.8844,0.00010619,1.403e-05,0.0,0 STARLINK-3595,1 51894U 22022AU  23330.51298026  .00001403  00000-0  10619-3 0  9997,2 51894  53.2165 143.8856 0001386  83.2305 276.8844 15.08848162 97373,6917.855,95.437,540.679,538.762,0.0
51894.0,STARLINK-3595,PAYLOAD,2023-11-26 18:40:13,15.08847508,0.0001404,53.2168,142.6959,88.3688,271.7464,8.9562e-05,1.138e-05,0.0,0 STARLINK-3595,1 51894U 22022AU  23330.77793906  .00001138  00000-0  89562-4 0  9991,2 51894  53.2168 142.6959 0001404  88.3688 271.7464 15.08847508 97418,6917.857,95.437,540.694,538.751,0.0
51894.0,STARLINK-3595,PAYLOAD,2023-11-27 12:09:29,15.08836458,0.0001688,53.2181,139.4292,104.7677,255.3502,-3.6247e-05,-8.65e-06,0.0,0 STARLINK-3595,1 51894U 22022AU  23331.50658813 -.00000865  00000-0 -36247-4 0  9990,2 51894  53.2181 139.4292 0001688 104.7677 255.3502 15.08836458 97527,6917.891,95.438,540.924,538.588,0.0
51894.0,STARLINK-3595,PAYLOAD,2023-11-27 16:55:38,15.08839363,0.0001523,53.2172,138.5314,106.8359,253.2801,-7.2178e-05,-1.437e-05,0.0,0 STARLINK-3595,1 51894U 22022AU  23331.70530668 -.00001437  00000-0 -72178-4 0  9998,2 51894  53.2172 138.5314 0001523 106.8359 253.2801 15.08839363 97550,6917.882,95.438,540.801,538.694,0.0
51894.0,STARLINK-3595,PAYLOAD,2023-11-28 10:24:53,15.0883715,0.0001453,53.2173,135.2601,98.6265,261.4891,-3.5253e-07,-2.94e-06,0.0,0 STARLINK-3595,1 51894U 22022AU  23332.43394816 -.00000294  00000-0 -35253-6 0  9997,2 51894  53.2173 135.2601 0001453  98.6265 261.4891 15.08837150 97664,6917.889,95.438,540.759,538.749,0.0
51894.0,STARLINK-3595,PAYLOAD,2023-11-28 18:21:48,15.08841221,0.0001383,53.2173,133.7753,93.7142,266.4008,3.7324e-05,3.06e-06,0.0,0 STARLINK-3595,1 51894U 22022AU  23332.76514521  .00000306  00000-0  37324-4 0  9991,2 51894  53.2173 133.7753 0001383  93.7142 266.4008 15.08841221 97712,6917.877,95.437,540.698,538.785,0.0
51894.0,STARLINK-3595,PAYLOAD,2023-11-29 13:26:26,15.08840731,0.0001167,53.2159,130.2065,81.5998,278.5127,0.00014646,2.044e-05,0.0,0 STARLINK-3595,1 51894U 22022AU  23333.56002497  .00002044  00000-0  14646-3 0  9996,2 51894  53.2159 130.2065 0001167  81.5998 278.5127 15.08840731 97832,6917.878,95.438,540.55,538.936,0.0
51894.0,STARLINK-3595,PAYLOAD,2023-11-30 10:06:26,15.08841894,0.0001231,53.2151,126.3401,81.1772,278.9359,7.5621e-05,9.16e-06,0.0,0 STARLINK-3595,1 51894U 22022AU  23334.42114534  .00000916  00000-0  75621-4 0  9995,2 51894  53.2151 126.3401 0001231  81.1772 278.9359 15.08841894 97968,6917.875,95.437,540.591,538.888,0.0
51894.0,STARLINK-3595,PAYLOAD,2023-12-01 16:18:45,15.08890863,0.0001711,53.2165,120.6926,87.1295,272.9893,-0.00061887,-0.00010138,0.0,0 STARLINK-3595,1 51894U 22022AU  23335.67968950 -.00010138  00000-0 -61887-3 0  9999,2 51894  53.2165 120.6926 0001711  87.1295 272.9893 15.08890863 98150,6917.725,95.434,540.774,538.406,0.0
51894.0,STARLINK-3595,PAYLOAD,2023-12-02 14:34:09,15.08850068,0.0001558,53.2172,116.5286,94.2638,265.8532,0.00014484,2.018e-05,0.0,0 STARLINK-3595,1 51894U 22022AU  23336.60705386  .00002018  00000-0  14484-3 0  9992,2 51894  53.2172 116.5286 0001558  94.2638 265.8532 15.08850068 98299,6917.85,95.437,540.792,538.637,0.0
51894.0,STARLINK-3595,PAYLOAD,2023-12-02 16:09:32,15.08852299,0.0001601,53.2168,116.2315,93.4082,266.7093,0.00021957,3.209e-05,0.0,0 STARLINK-3595,1 51894U 22022AU  23336.67329597  .00003209  00000-0  21957-3 0  9991,2 51894  53.2168 116.2315 0001601  93.4082 266.7093 15.08852299 98309,6917.843,95.437,540.815,538.6,0.0
51894.0,STARLINK-3595,PAYLOAD,2023-12-03 09:38:48,15.08827136,0.0001542,53.217,112.9575,98.9739,261.1428,-0.00017419,-3.058e-05,0.0,0 STARLINK-3595,1 51894U 22022AU  23337.40195156 -.00003058  00000-0 -17419-3 0  9997,2 51894  53.2170 112.9575 0001542  98.9739 261.1428 15.08827136 98411,6917.92,95.438,540.851,538.718,0.0
51894.0,STARLINK-3595,PAYLOAD,2023-12-03 14:24:59,15.08820438,0.0001641,53.2174,112.0608,128.8425,231.2714,-0.00019808,-3.437e-05,0.0,0 STARLINK-3595,1 51894U 22022AU  23337.60068470 -.00003437  00000-0 -19808-3 0  9992,2 51894  53.2174 112.0608 0001641 128.8425 231.2714 15.08820438 98445,6917.94,95.439,540.94,538.67,0.0
51894.0,STARLINK-3595,PAYLOAD,2023-12-04 09:29:37,15.08827845,0.0001603,53.2178,108.4938,123.5124,236.6021,-0.00017335,-3.045e-05,0.0,0 STARLINK-3595,1 51894U 22022AU  23338.39556889 -.00003045  00000-0 -17335-3 0  9993,2 51894  53.2178 108.4938 0001603 123.5124 236.6021 15.08827845 98562,6917.918,95.438,540.891,538.674,0.0
51894.0,STARLINK-3595,PAYLOAD,2023-12-04 12:40:22,15.08834123,0.0001381,53.2172,107.9015,92.4994,267.6156,-6.2319e-05,-1.279e-05,0.0,0 STARLINK-3595,1 51894U 22022AU  23338.52804370 -.00001279  00000-0 -62319-4 0  9999,2 51894  53.2172 107.9015 0001381  92.4994 267.6156 15.08834123 98580,6917.898,95.438,540.719,538.808,0.0
51894.0,STARLINK-3595,PAYLOAD,2023-12-05 12:31:09,15.08830256,0.000122,53.2166,103.4462,64.7744,295.3374,0.00037968,5.758e-05,0.0,0 STARLINK-3595,1 51894U 22022AU  23339.52164302  .00005758  00000-0  37968-3 0  9999,2 51894  53.2166 103.4462 0001220  64.7744 295.3374 15.08830256 98737,6917.91,95.438,540.619,538.931,0.0
